TIANMU-1 08             
1 57400U 23101B   26066.00237819  .00000346  00000+0  14775-4 0  9993
2 57400  97.2717 118.7901 0006380 134.2174 225.9592 15.29204229146020
STARLINK-34062          
1 64021U 25101AD  26068.20594286  .00018247  00000+0  67062-3 0  9995
2 64021  43.0031   0.4821 0001326 270.5758  89.4941 15.27597112 46989
